STARLINK-37592          
1 69025U 26101A   26155.25004630 -.01866701  00000+0 -48086-1 0  9998
2 69025  97.2845  10.2185 0001704  88.2793 335.3133 15.42427546  5876
STARLINK-37637          
1 69026U 26101B   26155.06761030  .00055783  00000+0  10187-2 0  9991
2 69026  97.2871   9.9715 0000822 108.3022 251.8319 15.49227315  4550
STARLINK-37548          
1 69027U 26101C   26155.10698597  .00050671  00000+0  92674-3 0  9997
2 69027  97.2827  10.0752 0001640 115.7030 244.4390 15.49207467  4560
STARLINK-37634          
1 69028U 26101D   26155.25004630 -.00011320  00000+0 -20678-3 0  9998
2 69028  97.2849  10.2770 0001655  94.3973 119.8272 15.49186041  5874
STARLINK-37635          
1 69029U 26101E   26155.25004630 -.02461923  00000+0 -68757-1 0  9997
2 69029  97.2843  10.2476 0001780  73.1943  54.0007 15.40414468  5844
STARLINK-37615          
1 69030U 26101F   26155.25004630 -.01931193  00000+0 -43771-1 0  9998
2 69030  97.2846  10.2575 0001919  86.4393  76.3877 15.46291617  5879
STARLINK-37240          
1 69031U 26101G   26155.11400475  .00038227  00000+0  70129-3 0  9993
2 69031  97.2864  10.0622 0001805 103.0770 257.0683 15.49181521  4563
STARLINK-37596          
1 69032U 26101H   26155.08391686  .00057144  00000+0  10435-2 0  9995
2 69032  97.2856   9.9513 0000910  76.2349 283.9003 15.49224471  4555
STARLINK-37591          
1 69033U 26101J   26155.11587786  .00059389  00000+0  10848-2 0  9999
2 69033  97.2827  10.0620 0002578 137.5080 222.6371 15.49204659  4566
STARLINK-37611          
1 69034U 26101K   26155.10583603  .00056589  00000+0  10342-2 0  9991
2 69034  97.2843  10.0749 0002308 135.3196 224.8242 15.49201014  4565
STARLINK-37512          
1 69035U 26101L   26155.07352040  .00052891  00000+0  96655-3 0  9991
2 69035  97.2864   9.9647 0000846  84.6740 275.4607 15.49221415  4552
STARLINK-37609          
1 69036U 26101M   26155.08071856  .00059338  00000+0  10833-2 0  9992
2 69036  97.2870   9.9590 0000967 102.8897 257.2462 15.49221920  4555
STARLINK-37608          
1 69037U 26101N   26155.11651003  .00053729  00000+0  98245-3 0  9997
2 69037  97.2830  10.0589 0002302  86.9793 273.1722 15.49198960  4569
STARLINK-37466          
1 69038U 26101P   26155.08449748  .00052984  00000+0  96825-3 0  9999
2 69038  97.2863   9.9518 0001363  81.3161 278.8245 15.49220982  4550
STARLINK-37612          
1 69039U 26101Q   26155.23730645 -.00480437  00000+0 -10048-1 0  9997
2 69039  97.2839  10.2025 0001930 129.2498 230.8924 15.47219108  4588
STARLINK-37616          
1 69040U 26101R   26155.25004630 -.02471648  00000+0 -74802-1 0  9993
2 69040  97.2842  10.2395 0001620  83.8867  22.3976 15.37993738  5876
STARLINK-37614          
1 69041U 26101S   26155.17905459  .00095386  00000+0  17338-2 0  9993
2 69041  97.2840  10.1279 0001758 106.0910 254.0535 15.49197882  4574
STARLINK-37644          
1 69042U 26101T   26155.17733098  .00053924  00000+0  98667-3 0  9999
2 69042  97.2853  10.1303 0001387  96.6943 263.4466 15.49180261  4575
STARLINK-37571          
1 69043U 26101U   26155.11076432  .00068245  00000+0  12454-2 0  9997
2 69043  97.2840  10.0694 0001641 109.4919 250.6509 15.49193502  4560
STARLINK-37664          
1 69044U 26101V   26155.14740297  .00046466  00000+0  85058-3 0  9990
2 69044  97.2824  10.0188 0002760  74.6238 285.5318 15.49200131  4563
STARLINK-37667          
1 69045U 26101W   26155.25004630 -.02459472  00000+0 -60863-1 0  9991
2 69045  97.2847  10.3056 0002185 100.8129 170.9557 15.44003710  5874
STARLINK-37666          
1 69046U 26101X   26155.25004630 -.02571124  00000+0 -54504-1 0  9996
2 69046  97.2846  10.3230 0002005 114.2976 208.5033 15.48642529  5876
STARLINK-37576          
1 69047U 26101Y   26155.25004630 -.02623593  00000+0 -53792-1 0  9993
2 69047  97.2838  10.3315 0001747  82.7967 259.8162 15.49665667  5841
STARLINK-37663          
1 69048U 26101Z   26155.10648573  .00087299  00000+0  15871-2 0  9998
2 69048  97.2834  10.0732 0001882 135.7159 224.4243 15.49223775  4566
TIANZHOU-10             
1 69049U 26102A   26155.11352728  .00025633  00000+0  30785-3 0  9991
2 69049  41.4695  41.5326 0009764 338.4220  21.6207 15.60233359  3770
QIANFAN-127             
1 69073U 26104A   26155.24617741  .00000113  00000+0  44965-4 0  9995
2 69073  88.9862 343.0840 0005176 140.9305 219.2261 14.21690501  3253
QIANFAN-128             
1 69074U 26104B   26155.29786011  .00000119  00000+0  51044-4 0  9990
2 69074  88.9863 343.0921 0004469 137.8205 222.3329 14.18045580  3250
QIANFAN-129             
1 69075U 26104C   26155.27921988  .00000134  00000+0  50726-4 0  9996
2 69075  88.9863 343.0702 0004794 147.0030 213.1464 14.25500113  3263
QIANFAN-130             
1 69076U 26104D   26155.28542630  .00000119  00000+0  50625-4 0  9992
2 69076  88.9863 343.0900 0004531 128.7135 231.4460 14.18734805  3252
QIANFAN-131             
1 69077U 26104E   26155.26010721  .00000112  00000+0  45388-4 0  9995
2 69077  88.9861 343.0860 0004014 144.3167 215.8292 14.20505378  3254
